{
"type": "FeatureCollection",
"name": "airport_hotspots_diagnostics",
"crs": { "type": "name", "properties": { "name": "urn:ogc:def:crs:OGC:1.3:CRS84" } },
"features": [
{ "type": "Feature", "properties": { "dining_cluster_id": 10, "taxi_hotspot_id": 7, "n_restaurants": 48, "n_taxi_dropoffs": 577, "taxi_weight": 380.4, "avg_rating": 2.5538461538461537, "bayesian_rating": 4.0069660081445644, "n_rated_restaurants": 0, "rating_coverage": null, "total_review_count": 0, "dining_area_sqm": 499310.78828817961, "taxi_area_sqm": 199438.41564207323, "intersection_area_sqm": 35138.410495078002, "overlap_ratio_dining": 0.070373825920215655, "overlap_ratio_taxi": 0.17618677114914491, "min_overlap_ratio": 0.070373825920215655, "airport_overlap_ratio": 0.99999999999999978, "is_airport": true, "airport_zone_id": 132.0, "peak_hour_ratio": 0.55066530194472874, "peak_weight": 215.2, "lunch_peak_ratio": 0.25409416581371547, "lunch_weight": 99.3, "peak_time_score": 54.4679276522346, "lunch_peak_score": 50.927886503451944, "distance_to_midtown_km": 21.311258512282699, "accessibility_proxy": 34.453385323720411, "restaurant_density": 1366.0265027276512, "taxi_density": 10825.760034116636, "restaurant_score": 60.403897345366715, "taxi_score": 17.453273686377653, "popularity_score": 38.928585515872186, "rank": 4, "restaurant_score_v2": 78.965122766944816, "taxi_score_v2": 18.564312609070956, "popularity_score_v2": 21.636181212855771, "entropy_weight_restaurant": 0.20005164229110195, "entropy_weight_taxi": 0.75057148244721517, "entropy_weight_peak_time": 0.03862928693469727, "entropy_weight_accessibility": 0.010747588326985616, "rank_v2": 4, "demand_score_v3": 96.774193548387103, "poi_score_v3": 75.504500958361717, "time_fit_score_v3": 54.4679276522346, "data_confidence_v3": 87.58064516129032, "area_quality_score_v3": 85.875714606752297, "product_weight_demand": 0.42875776396814919, "product_weight_poi": 0.22963833177845744, "product_weight_time": 0.19965786771492983, "product_weight_confidence": 0.14194603653846352, "rank_v3": 1 }, "geometry": { "type": "Polygon", "coordinates": [ [ [ -73.782424884013736, 40.645515252622559 ], [ -73.781200104720895, 40.645390059392852 ], [ -73.781148373912728, 40.645382804380297 ], [ -73.781097813853449, 40.645371753764508 ], [ -73.78104890335004, 40.64535701219566 ], [ -73.781002105587177, 40.645338719277433 ], [ -73.780957863740838, 40.645317048244969 ], [ -73.780916596781097, 40.645292204324093 ], [ -73.78087869550447, 40.645264422787903 ], [ -73.780844518832907, 40.645233966728469 ], [ -73.780814390415031, 40.645201124565368 ], [ -73.780788595561049, 40.645166207314134 ], [ -73.7807673785411, 40.645129545640977 ], [ -73.780750940272284, 40.645091486731161 ], [ -73.780739436416113, 40.645052391001187 ], [ -73.780732975904755, 40.645012628685549 ], [ -73.780731619909787, 40.644972576330638 ], [ -73.78073538126317, 40.644932613228804 ], [ -73.780758382412287, 40.644787613335353 ], [ -73.780767628301817, 40.644746741259745 ], [ -73.780782225699454, 40.644706785099828 ], [ -73.780802026468692, 40.644668150310736 ], [ -73.781034028785157, 40.644275151297833 ], [ -73.781058794029079, 40.644238279629626 ], [ -73.78108829723692, 40.644203489750588 ], [ -73.781122239847022, 40.644171133713229 ], [ -73.781160278375026, 40.644141538940502 ], [ -73.781202027890131, 40.644115004912742 ], [ -73.781247065910136, 40.644091800137112 ], [ -73.782277062466179, 40.64361680262575 ], [ -73.782310446613977, 40.643602610743081 ], [ -73.783378442290413, 40.643185613015881 ], [ -73.783414166520856, 40.643172895519534 ], [ -73.783787911833059, 40.643052293918643 ], [ -73.782424884013736, 40.645515252622559 ] ] ] } },
{ "type": "Feature", "properties": { "dining_cluster_id": 11, "taxi_hotspot_id": 8, "n_restaurants": 36, "n_taxi_dropoffs": 496, "taxi_weight": 337.6, "avg_rating": 2.5863636363636364, "bayesian_rating": 4.0069660081445644, "n_rated_restaurants": 0, "rating_coverage": null, "total_review_count": 0, "dining_area_sqm": 286184.75017867336, "taxi_area_sqm": 240226.54506258937, "intersection_area_sqm": 96610.129134264542, "overlap_ratio_dining": 0.33757958477503802, "overlap_ratio_taxi": 0.40216258827305468, "min_overlap_ratio": 0.33757958477503802, "airport_overlap_ratio": 1.0, "is_airport": true, "airport_zone_id": 132.0, "peak_hour_ratio": 0.52002338497515344, "peak_weight": 177.9, "lunch_peak_ratio": 0.33411283250511548, "lunch_weight": 114.3, "peak_time_score": 49.755005841840493, "lunch_peak_score": 71.57625420410875, "distance_to_midtown_km": 20.696754408865846, "accessibility_proxy": 35.528403158221387, "restaurant_density": 372.63173460795991, "taxi_density": 3494.4576001013129, "restaurant_score": 16.477285762714601, "taxi_score": 5.6337591714397632, "popularity_score": 11.055522467077182, "rank": 19, "restaurant_score_v2": 19.130764568480906, "taxi_score_v2": 5.9473296623249503, "popularity_score_v2": 6.6129034488594858, "entropy_weight_restaurant": 0.20005164229110195, "entropy_weight_taxi": 0.75057148244721517, "entropy_weight_peak_time": 0.03862928693469727, "entropy_weight_accessibility": 0.010747588326985616, "rank_v2": 14, "demand_score_v3": 87.096774193548384, "poi_score_v3": 60.181920313200415, "time_fit_score_v3": 49.755005841840493, "data_confidence_v3": 84.193548387096769, "area_quality_score_v3": 78.829319951090383, "product_weight_demand": 0.42875776396814919, "product_weight_poi": 0.22963833177845744, "product_weight_time": 0.19965786771492983, "product_weight_confidence": 0.14194603653846352, "rank_v3": 6 }, "geometry": { "type": "Polygon", "coordinates": [ [ [ -73.793865984352877, 40.645331132125698 ], [ -73.792252683023719, 40.645556938632453 ], [ -73.792191615143381, 40.645562771936781 ], [ -73.792130072543102, 40.645563279596963 ], [ -73.792068853130417, 40.645558455031136 ], [ -73.790710845073534, 40.645391454021372 ], [ -73.790691052134221, 40.645388731133806 ], [ -73.790221396338566, 40.645317222905881 ], [ -73.79023776895356, 40.642553861755751 ], [ -73.790239747904366, 40.642526346978286 ], [ -73.790245338676598, 40.642499122007592 ], [ -73.790254484916687, 40.642472461243194 ], [ -73.79026709443589, 40.642446633397824 ], [ -73.790283040139627, 40.642421898788825 ], [ -73.790302161308645, 40.642398506714734 ], [ -73.790324265218914, 40.642376692942385 ], [ -73.790349129084291, 40.642356677330859 ], [ -73.790376502301982, 40.642338661615597 ], [ -73.790406108978317, 40.642322827375047 ], [ -73.791483637562351, 40.641806024361451 ], [ -73.792818093229783, 40.642418051519037 ], [ -73.793865984352877, 40.645331132125698 ] ] ] } },
{ "type": "Feature", "properties": { "dining_cluster_id": 11, "taxi_hotspot_id": 6, "n_restaurants": 36, "n_taxi_dropoffs": 272, "taxi_weight": 166.9, "avg_rating": 2.5863636363636364, "bayesian_rating": 4.0069660081445644, "n_rated_restaurants": 0, "rating_coverage": null, "total_review_count": 0, "dining_area_sqm": 286184.75017867336, "taxi_area_sqm": 85816.739912493184, "intersection_area_sqm": 15918.727053180361, "overlap_ratio_dining": 0.055623952859968399, "overlap_ratio_taxi": 0.1854967582014021, "min_overlap_ratio": 0.055623952859968399, "airport_overlap_ratio": 1.0, "is_airport": true, "airport_zone_id": 132.0, "peak_hour_ratio": 0.34645199761478834, "peak_weight": 58.1, "lunch_peak_ratio": 0.36493738819320221, "lunch_weight": 61.2, "peak_time_score": 23.058621997342147, "lunch_peak_score": 79.530357744869107, "distance_to_midtown_km": 20.597774986526034, "accessibility_proxy": 35.704668004339382, "restaurant_density": 2261.4873588656483, "taxi_density": 10484.506672074354, "restaurant_score": 100.0, "taxi_score": 16.903105540644646, "popularity_score": 58.451552770322323, "rank": 1, "restaurant_score_v2": 100.0, "taxi_score_v2": 17.977024349152718, "popularity_score_v2": 22.72704403191711, "entropy_weight_restaurant": 0.20005164229110195, "entropy_weight_taxi": 0.75057148244721517, "entropy_weight_peak_time": 0.03862928693469727, "entropy_weight_accessibility": 0.010747588326985616, "rank_v2": 3, "demand_score_v3": 95.161290322580655, "poi_score_v3": 76.310952571264934, "time_fit_score_v3": 23.058621997342147, "data_confidence_v3": 74.032258064516128, "area_quality_score_v3": 77.534163724981752, "product_weight_demand": 0.42875776396814919, "product_weight_poi": 0.22963833177845744, "product_weight_time": 0.19965786771492983, "product_weight_confidence": 0.14194603653846352, "rank_v3": 9 }, "geometry": { "type": "Polygon", "coordinates": [ [ [ -73.790219426444693, 40.64564965319903 ], [ -73.79060880206822, 40.645577844401572 ], [ -73.790662059455542, 40.645570152666735 ], [ -73.790716060444041, 40.64556656259856 ], [ -73.790770261959466, 40.645567110301485 ], [ -73.790824118911218, 40.645571790267354 ], [ -73.790877089673515, 40.645580555430961 ], [ -73.790928641532361, 40.645593317643261 ], [ -73.790978256042564, 40.645609948557833 ], [ -73.791025434241305, 40.645630280921559 ], [ -73.791069701666032, 40.645654110256579 ], [ -73.791110613125753, 40.645681196916556 ], [ -73.79114775717828, 40.645711268496626 ], [ -73.79118076026792, 40.645744022572906 ], [ -73.791209290482371, 40.645779129743637 ], [ -73.791233060890846, 40.645816236941933 ], [ -73.791251832429865, 40.645854970986392 ], [ -73.791265416307752, 40.645894942333918 ], [ -73.791424420775442, 40.646482941607445 ], [ -73.79143272177356, 40.646524053780304 ], [ -73.791435534302124, 40.646565594106967 ], [ -73.791432829643696, 40.646607138589253 ], [ -73.791424635394293, 40.646648263185789 ], [ -73.791411035182065, 40.646688548140283 ], [ -73.791392167814237, 40.646727582265711 ], [ -73.79136822586058, 40.646764967141678 ], [ -73.791339453688238, 40.646800321180855 ], [ -73.791306144967734, 40.646833283524153 ], [ -73.791268639675678, 40.64686351772405 ], [ -73.79122732062477, 40.646890715178749 ], [ -73.791195320563659, 40.646909715270517 ], [ -73.791169142380923, 40.646924318044896 ], [ -73.790208893678511, 40.647426942283651 ], [ -73.790219426444693, 40.64564965319903 ] ] ] } },
{ "type": "Feature", "properties": { "dining_cluster_id": 41, "taxi_hotspot_id": 26, "n_restaurants": 72, "n_taxi_dropoffs": 690, "taxi_weight": 413.5, "avg_rating": 3.3018181818181813, "bayesian_rating": 4.0069660081445644, "n_rated_restaurants": 0, "rating_coverage": null, "total_review_count": 0, "dining_area_sqm": 1097014.0718618142, "taxi_area_sqm": 106383.42493559139, "intersection_area_sqm": 106383.42493559132, "overlap_ratio_dining": 0.096975442397964018, "overlap_ratio_taxi": 0.99999999999999933, "min_overlap_ratio": 0.096975442397964018, "airport_overlap_ratio": 0.9874738227893014, "is_airport": true, "airport_zone_id": 138.0, "peak_hour_ratio": 0.26073546856465007, "peak_weight": 109.9, "lunch_peak_ratio": 0.43463819691577704, "lunch_weight": 183.2, "peak_time_score": 9.8748743984961358, "lunch_peak_score": 97.516260122964482, "distance_to_midtown_km": 10.24371972868213, "accessibility_proxy": 59.918433732344589, "restaurant_density": 676.79716124566971, "taxi_density": 3886.883696876173, "restaurant_score": 29.927081333991982, "taxi_score": 6.2664279214493721, "popularity_score": 18.096754627720678, "rank": 12, "restaurant_score_v2": 37.451319168821335, "taxi_score_v2": 6.6226848826871718, "popularity_score_v2": 8.7040132973237334, "entropy_weight_restaurant": 0.20005164229110195, "entropy_weight_taxi": 0.75057148244721517, "entropy_weight_peak_time": 0.03862928693469727, "entropy_weight_accessibility": 0.010747588326985616, "rank_v2": 10, "demand_score_v3": 90.322580645161281, "poi_score_v3": 69.052888055135895, "time_fit_score_v3": 9.8748743984961358, "data_confidence_v3": 89.838709677419359, "area_quality_score_v3": 73.443460010417866, "product_weight_demand": 0.42875776396814919, "product_weight_poi": 0.22963833177845744, "product_weight_time": 0.19965786771492983, "product_weight_confidence": 0.14194603653846352, "rank_v3": 14 }, "geometry": { "type": "Polygon", "coordinates": [ [ [ -73.863226953244549, 40.768406810350271 ], [ -73.863276220599417, 40.768394132384415 ], [ -73.863326860485628, 40.768385106451596 ], [ -73.863378405735773, 40.768379815818619 ], [ -73.863430380830692, 40.768378309292927 ], [ -73.863482306285974, 40.768380600772709 ], [ -73.863533703075177, 40.768386669118421 ], [ -73.863584097048602, 40.768396458347915 ], [ -73.866721080262366, 40.769129454059502 ], [ -73.866768389195656, 40.769142362946596 ], [ -73.866813920083999, 40.769158551064621 ], [ -73.86685728067674, 40.769177878952732 ], [ -73.866898097419508, 40.769200180100803 ], [ -73.866936018672192, 40.769225262383721 ], [ -73.867323018520153, 40.769506261139959 ], [ -73.867358815626446, 40.769534871518367 ], [ -73.867390843004017, 40.769565957527639 ], [ -73.867418806040249, 40.769599233220013 ], [ -73.867442447507585, 40.769634392505047 ], [ -73.86746154992997, 40.769671111965422 ], [ -73.867475937583322, 40.769709053831861 ], [ -73.867653941847479, 40.770280053025886 ], [ -73.867663471364281, 40.770318806442859 ], [ -73.86766808161812, 40.770358075147975 ], [ -73.867667730325778, 40.77039749906006 ], [ -73.867662420699702, 40.770436716674034 ], [ -73.867652201418906, 40.770475368375912 ], [ -73.867637166182917, 40.770513099740413 ], [ -73.867617452852869, 40.770549564780744 ], [ -73.867593242187624, 40.77058442912157 ], [ -73.86674924713661, 40.771670432502738 ], [ -73.866719529414766, 40.771704655912828 ], [ -73.866685480819015, 40.771736462001655 ], [ -73.866647439144884, 40.771765535216048 ], [ -73.866605781805347, 40.77179158711575 ], [ -73.866560922086535, 40.771814359235087 ], [ -73.866513305047363, 40.771833625647481 ], [ -73.866463403103978, 40.77184919520699 ], [ -73.866411711342693, 40.771860913444748 ], [ -73.866358742607858, 40.771868664101589 ], [ -73.866305022413712, 40.771872370281535 ], [ -73.866251083730248, 40.771871995214774 ], [ -73.866197461695265, 40.77186754262241 ], [ -73.866144688304857, 40.771859056679588 ], [ -73.866093287135072, 40.771846621577247 ], [ -73.865780285576207, 40.771757621067053 ], [ -73.865720203695517, 40.771737296085142 ], [ -73.865663805301736, 40.7717115845237 ], [ -73.863938800639147, 40.770812579985332 ], [ -73.86388736013717, 40.770782155574693 ], [ -73.863549359781786, 40.770556154536024 ], [ -73.863538655735411, 40.770548802807305 ], [ -73.862876655318345, 40.770081800712035 ], [ -73.862839541121559, 40.770052917372197 ], [ -73.862806326951087, 40.770021408923938 ], [ -73.862777332281283, 40.769987578440386 ], [ -73.862752835998734, 40.769951751329337 ], [ -73.862733073719895, 40.769914272203131 ], [ -73.862718235524937, 40.769875501563888 ], [ -73.862708464129739, 40.769835812335792 ], [ -73.862703853513381, 40.769795586278079 ], [ -73.862658860840213, 40.768892586068823 ], [ -73.862659351733996, 40.768853552595651 ], [ -73.862664702708486, 40.768814729910822 ], [ -73.862674865653432, 40.768776467005083 ], [ -73.862689749202573, 40.768739107836488 ], [ -73.862709219555128, 40.768702988238566 ], [ -73.86273310167887, 40.768668432901372 ], [ -73.862761180883723, 40.768635752452901 ], [ -73.862793204752066, 40.768605240666744 ], [ -73.862828885407637, 40.768577171821441 ], [ -73.862867902103673, 40.768551798234959 ], [ -73.862909904106047, 40.768529347996605 ], [ -73.862954513846233, 40.768510022916757 ], [ -73.863179512927104, 40.768423023391378 ], [ -73.863226953244549, 40.768406810350271 ] ] ] } },
{ "type": "Feature", "properties": { "dining_cluster_id": 41, "taxi_hotspot_id": 24, "n_restaurants": 72, "n_taxi_dropoffs": 622, "taxi_weight": 358.5, "avg_rating": 3.3018181818181813, "bayesian_rating": 4.0069660081445644, "n_rated_restaurants": 0, "rating_coverage": null, "total_review_count": 0, "dining_area_sqm": 1097014.0718618142, "taxi_area_sqm": 66553.571572666828, "intersection_area_sqm": 66553.571572666842, "overlap_ratio_dining": 0.060667928771154622, "overlap_ratio_taxi": 1.0000000000000002, "min_overlap_ratio": 0.060667928771154622, "airport_overlap_ratio": 0.96418121958057645, "is_airport": true, "airport_zone_id": 138.0, "peak_hour_ratio": 0.20313358988455196, "peak_weight": 73.9, "lunch_peak_ratio": 0.45931830676195706, "lunch_weight": 167.1, "peak_time_score": 1.0153389255471545, "lunch_peak_score": 100.0, "distance_to_midtown_km": 10.450375304496815, "accessibility_proxy": 59.302497457832104, "restaurant_density": 1081.8352538959755, "taxi_density": 5386.6380350237114, "restaurant_score": 47.837333675772527, "taxi_score": 8.6843295600900312, "popularity_score": 28.260831617931281, "rank": 5, "restaurant_score_v2": 61.847656956600972, "taxi_score_v2": 9.2037235288247228, "popularity_score_v2": 12.962292808002914, "entropy_weight_restaurant": 0.20005164229110195, "entropy_weight_taxi": 0.75057148244721517, "entropy_weight_peak_time": 0.03862928693469727, "entropy_weight_accessibility": 0.010747588326985616, "rank_v2": 5, "demand_score_v3": 93.548387096774192, "poi_score_v3": 72.278694506748806, "time_fit_score_v3": 1.0153389255471545, "data_confidence_v3": 88.709677419354847, "area_quality_score_v3": 72.954371533352642, "product_weight_demand": 0.42875776396814919, "product_weight_poi": 0.22963833177845744, "product_weight_time": 0.19965786771492983, "product_weight_confidence": 0.14194603653846352, "rank_v3": 16 }, "geometry": { "type": "Polygon", "coordinates": [ [ [ -73.862857662464307, 40.766761886745847 ], [ -73.86290495560398, 40.766766668060733 ], [ -73.863384952775377, 40.766831667669088 ], [ -73.863433781788004, 40.766840066980578 ], [ -73.863481381896548, 40.766851858922863 ], [ -73.863527346261691, 40.76686694271006 ], [ -73.863571282024012, 40.766885189420726 ], [ -73.863612813661817, 40.766906443099892 ], [ -73.863651586200518, 40.766930522091684 ], [ -73.863912585965863, 40.76710852128064 ], [ -73.863951385925546, 40.767137800627005 ], [ -73.863986105447722, 40.767169905014924 ], [ -73.864016390690253, 40.767204507259997 ], [ -73.864041933000536, 40.767241254720844 ], [ -73.864062472061164, 40.767279772893062 ], [ -73.864077798543207, 40.767319669225678 ], [ -73.864087756239911, 40.767360537121803 ], [ -73.864092243658916, 40.767401960082211 ], [ -73.86409121505703, 40.767443515950099 ], [ -73.864084680906856, 40.767484781213319 ], [ -73.863794690876176, 40.76876678254326 ], [ -73.863782908405184, 40.768806813096866 ], [ -73.863765944909858, 40.768845753542536 ], [ -73.863743968779318, 40.768883217315214 ], [ -73.863717198164608, 40.76891883250827 ], [ -73.863685898813344, 40.768952245565515 ], [ -73.863650381431796, 40.768983124791077 ], [ -73.863610998600578, 40.769011163642418 ], [ -73.863568141274854, 40.769036083773329 ], [ -73.863522234902987, 40.769057637797459 ], [ -73.863473735203215, 40.769075611744093 ], [ -73.862694731582749, 40.769328613168106 ], [ -73.862646828758159, 40.769342176075831 ], [ -73.862597457271988, 40.769352244648047 ], [ -73.862547057034917, 40.7693587291715 ], [ -73.862496077124504, 40.769361571867556 ], [ -73.862444971783603, 40.769360747407212 ], [ -73.86239419637279, 40.769356263136523 ], [ -73.862344203312659, 40.769348159011365 ], [ -73.862295438052556, 40.769336507241434 ], [ -73.862248335101242, 40.769321411646544 ], [ -73.862203314155138, 40.769303006731796 ], [ -73.862160776358664, 40.769281456488919 ], [ -73.861487774827552, 40.768904454631276 ], [ -73.861450734851402, 40.768881730067939 ], [ -73.861416462500699, 40.768856620567711 ], [ -73.861266462569233, 40.768736620061745 ], [ -73.861218335808289, 40.768692294370403 ], [ -73.86070633757474, 40.768147292431621 ], [ -73.860678364694678, 40.768114296021082 ], [ -73.860654652455594, 40.768079424071345 ], [ -73.860635416432501, 40.768042993623716 ], [ -73.860620831503596, 40.768005335888063 ], [ -73.860611030260586, 40.767966793231842 ], [ -73.860606101803484, 40.767927716067071 ], [ -73.860599102702921, 40.767816716034531 ], [ -73.860598564254957, 40.76778980395963 ], [ -73.860600564962041, 40.767702803968923 ], [ -73.860606121316309, 40.767650739739295 ], [ -73.860694124939286, 40.767190740144585 ], [ -73.860704134862587, 40.767151739496704 ], [ -73.860719043265306, 40.767113654167552 ], [ -73.860738711266222, 40.767076838924986 ], [ -73.860762955648966, 40.767041636705351 ], [ -73.860791550568862, 40.767008375419032 ], [ -73.86082422965697, 40.76697736489605 ], [ -73.860860688501461, 40.76694889400013 ], [ -73.860900587483286, 40.76692322793788 ], [ -73.860943554939823, 40.766900605788678 ], [ -73.860989190626867, 40.766881238277499 ], [ -73.86103706944688, 40.766865305812352 ], [ -73.861086745408613, 40.766852956803689 ], [ -73.861137755781428, 40.766844306282096 ], [ -73.86118962540526, 40.766839434826906 ], [ -73.862561616994682, 40.766761435302975 ], [ -73.86260200064288, 40.766760288868554 ], [ -73.862809999357069, 40.766760288868554 ], [ -73.862857662464307, 40.766761886745847 ] ] ] } },
{ "type": "Feature", "properties": { "dining_cluster_id": 10, "taxi_hotspot_id": 5, "n_restaurants": 48, "n_taxi_dropoffs": 176, "taxi_weight": 100.2, "avg_rating": 2.5538461538461537, "bayesian_rating": 4.0069660081445644, "n_rated_restaurants": 0, "rating_coverage": null, "total_review_count": 0, "dining_area_sqm": 499310.78828817961, "taxi_area_sqm": 87697.938629800527, "intersection_area_sqm": 76640.802463488581, "overlap_ratio_dining": 0.15349318352651931, "overlap_ratio_taxi": 0.87391794677195944, "min_overlap_ratio": 0.15349318352651931, "airport_overlap_ratio": 1.0000000000000002, "is_airport": true, "airport_zone_id": 132.0, "peak_hour_ratio": 0.18620689655172412, "peak_weight": 18.9, "lunch_peak_ratio": 0.29950738916256159, "lunch_weight": 30.4, "peak_time_score": 0.0, "lunch_peak_score": 62.646513830690431, "distance_to_midtown_km": 21.537884064880199, "accessibility_proxy": 34.065187988849708, "restaurant_density": 626.29824397868276, "taxi_density": 1307.3975843055005, "restaurant_score": 27.694085554952252, "taxi_score": 2.1077843757743002, "popularity_score": 14.900934965363277, "rank": 13, "restaurant_score_v2": 34.409657987026755, "taxi_score_v2": 2.1834556206844868, "popularity_score_v2": 5.7029802751861354, "entropy_weight_restaurant": 0.20005164229110195, "entropy_weight_taxi": 0.75057148244721517, "entropy_weight_peak_time": 0.03862928693469727, "entropy_weight_accessibility": 0.010747588326985616, "rank_v2": 16, "demand_score_v3": 72.58064516129032, "poi_score_v3": 66.63353321642623, "time_fit_score_v3": 0.0, "data_confidence_v3": 67.258064516129025, "area_quality_score_v3": 62.002969720746634, "product_weight_demand": 0.42875776396814919, "product_weight_poi": 0.22963833177845744, "product_weight_time": 0.19965786771492983, "product_weight_confidence": 0.14194603653846352, "rank_v3": 22 }, "geometry": { "type": "Polygon", "coordinates": [ [ [ -73.775983247132913, 40.646521473973472 ], [ -73.775965427533762, 40.646500254732416 ], [ -73.775942129457519, 40.646465725826857 ], [ -73.775735131478584, 40.646119724948164 ], [ -73.775716314008321, 40.646083913363299 ], [ -73.775701979175366, 40.646046917566863 ], [ -73.775692252798606, 40.646009062295853 ], [ -73.775687220244933, 40.645970679830711 ], [ -73.775686925680191, 40.645932107078991 ], [ -73.775706928678105, 40.645561107172206 ], [ -73.775708479006312, 40.645542567153072 ], [ -73.775741481337462, 40.645251567306474 ], [ -73.77574190962622, 40.645247974479354 ], [ -73.775751910265555, 40.645167974525776 ], [ -73.77576091418527, 40.645122751661489 ], [ -73.77577644816283, 40.645078568620349 ], [ -73.775801448561111, 40.645020568731162 ], [ -73.775817197368454, 40.64498857683666 ], [ -73.775836374395553, 40.644957689741723 ], [ -73.775858847571314, 40.644928120156521 ], [ -73.775969848113149, 40.644795120593528 ], [ -73.776005964131883, 40.644756871515206 ], [ -73.776173964474069, 40.644598872124256 ], [ -73.776209890099736, 40.644568329848532 ], [ -73.776249626301691, 40.644540661287301 ], [ -73.776411626057666, 40.644438661768802 ], [ -73.776467194936515, 40.644407980035439 ], [ -73.776548194682832, 40.644368980237331 ], [ -73.776555311504737, 40.644365612139524 ], [ -73.776598311362733, 40.644345612244081 ], [ -73.776650032047144, 40.644324404580885 ], [ -73.776704468470555, 40.644307597025502 ], [ -73.776769468135925, 40.644290597123991 ], [ -73.776771223362715, 40.644290140627092 ], [ -73.776829223062876, 40.6442751407141 ], [ -73.776881436544713, 40.64426382994224 ], [ -73.77693487611181, 40.64425656540844 ], [ -73.777089875178348, 40.644241565499556 ], [ -73.77710066990592, 40.644240604736773 ], [ -73.777260668935369, 40.644227604815974 ], [ -73.777315704613855, 40.644225286021353 ], [ -73.777370764162058, 40.644227248685993 ], [ -73.777544763103791, 40.644240248606742 ], [ -73.777599063929543, 40.644246439872198 ], [ -73.77765226002856, 40.644256795276767 ], [ -73.778151257371377, 40.644374794586568 ], [ -73.778156059951996, 40.644375948965205 ], [ -73.77929005397408, 40.644652947349719 ], [ -73.779350519034566, 40.644670829748478 ], [ -73.779513518313166, 40.644727829431211 ], [ -73.779550237165765, 40.6447419827171 ], [ -73.779585435973118, 40.644758222850278 ], [ -73.780597433023487, 40.645266220252417 ], [ -73.780640185933393, 40.645290048988286 ], [ -73.780679671151944, 40.64531695108105 ], [ -73.780715509395336, 40.645346668119672 ], [ -73.780747356409904, 40.645378914653477 ], [ -73.780774906278808, 40.645413380933988 ], [ -73.780797894360873, 40.645449735890175 ], [ -73.780816099832606, 40.645487630308509 ], [ -73.780829347809842, 40.645526700187226 ], [ -73.780837511027684, 40.645566570232944 ], [ -73.780840511063474, 40.645606857465339 ], [ -73.780838319090293, 40.645647174896062 ], [ -73.780830956154347, 40.645687135246 ], [ -73.780818492973054, 40.645726354665371 ], [ -73.780801049256198, 40.645764456420942 ], [ -73.780778792556248, 40.645801074514893 ], [ -73.780751936659286, 40.645835857200581 ], [ -73.780720739531517, 40.645868470361364 ], [ -73.78068550084167, 40.645898600720308 ], [ -73.780663236086951, 40.645914242597222 ], [ -73.775983247132913, 40.646521473973472 ] ] ] } },
{ "type": "Feature", "properties": { "dining_cluster_id": 41, "taxi_hotspot_id": 23, "n_restaurants": 72, "n_taxi_dropoffs": 1200, "taxi_weight": 723.7, "avg_rating": 3.3018181818181813, "bayesian_rating": 4.0069660081445644, "n_rated_restaurants": 0, "rating_coverage": null, "total_review_count": 0, "dining_area_sqm": 1097014.0718618142, "taxi_area_sqm": 602648.4920621434, "intersection_area_sqm": 438430.71183523984, "overlap_ratio_dining": 0.3996582387417788, "overlap_ratio_taxi": 0.72750652761947032, "min_overlap_ratio": 0.3996582387417788, "airport_overlap_ratio": 0.50342292799991628, "is_airport": true, "airport_zone_id": null, "peak_hour_ratio": 0.23890879030035822, "peak_weight": 173.4, "lunch_peak_ratio": 0.42504822265086795, "lunch_weight": 308.5, "peak_time_score": 6.5177923940518854, "lunch_peak_score": 95.041621103729739, "distance_to_midtown_km": 9.6605694171559762, "accessibility_proxy": 61.69122591023104, "restaurant_density": 164.22207216874273, "taxi_density": 1650.6599115072099, "restaurant_score": 7.2616842860052859, "taxi_score": 2.6611913720492932, "popularity_score": 4.9614378290272896, "rank": 44, "restaurant_score_v2": 6.5777908720192908, "taxi_score_v2": 2.7742012579766975, "popularity_score_v2": 2.9325210469267229, "entropy_weight_restaurant": 0.20005164229110195, "entropy_weight_taxi": 0.75057148244721517, "entropy_weight_peak_time": 0.03862928693469727, "entropy_weight_accessibility": 0.010747588326985616, "rank_v2": 34, "demand_score_v3": 74.193548387096769, "poi_score_v3": 43.246436442232678, "time_fit_score_v3": 6.5177923940518854, "data_confidence_v3": 90.967741935483872, "area_quality_score_v3": 61.837947267439716, "product_weight_demand": 0.42875776396814919, "product_weight_poi": 0.22963833177845744, "product_weight_time": 0.19965786771492983, "product_weight_confidence": 0.14194603653846352, "rank_v3": 23 }, "geometry": { "type": "Polygon", "coordinates": [ [ [ -73.876373340134009, 40.767733393953151 ], [ -73.876408051858832, 40.767741094561032 ], [ -73.876441576270537, 40.767751396557799 ], [ -73.876473577049481, 40.767764196593191 ], [ -73.876503733160661, 40.767779366256306 ], [ -73.876531742074349, 40.767796753363982 ], [ -73.876557322801062, 40.76781618348727 ], [ -73.876580218710302, 40.76783746170139 ], [ -73.876600200105443, 40.767860374541158 ], [ -73.876617066527785, 40.767884692142452 ], [ -73.876630648767843, 40.767910170548149 ], [ -73.876640810562989, 40.767936554155469 ], [ -73.876647449964523, 40.767963578280344 ], [ -73.876650500360597, 40.767990971812452 ], [ -73.876649931144698, 40.768018459935348 ], [ -73.876645748022867, 40.768045766883226 ], [ -73.87615725953755, 40.770261768377807 ], [ -73.876156290686282, 40.770265963436493 ], [ -73.875149932483339, 40.774433069147342 ], [ -73.875037761715774, 40.774492245120491 ], [ -73.874998392066502, 40.774511161542932 ], [ -73.874957030072096, 40.774527436533404 ], [ -73.874913981632545, 40.774540949726763 ], [ -73.873476974385298, 40.77493795201044 ], [ -73.873415218190715, 40.774951913055162 ], [ -73.873351718081381, 40.774960200021361 ], [ -73.872604713547631, 40.775023200404583 ], [ -73.872541171694152, 40.775025700360587 ], [ -73.87198316824454, 40.77502270034222 ], [ -73.87192850595612, 40.775020302187393 ], [ -73.871874441553814, 40.775013720477006 ], [ -73.871821527646631, 40.775003022484853 ], [ -73.871202524377836, 40.774852021604858 ], [ -73.871158546552849, 40.774839673350428 ], [ -73.871116138305311, 40.774824479978612 ], [ -73.871075617427834, 40.774806555343652 ], [ -73.870632616070793, 40.774590554230883 ], [ -73.870598306593095, 40.774572366516189 ], [ -73.867525300109236, 40.772805357890761 ], [ -73.867483972671636, 40.772779034783859 ], [ -73.867446292919055, 40.772749718106617 ], [ -73.867412634307243, 40.77271769842968 ], [ -73.867383330435217, 40.772683293113829 ], [ -73.867358671738856, 40.772646843164409 ], [ -73.867338902612616, 40.772608709851461 ], [ -73.867324218987363, 40.772569271128923 ], [ -73.867314766388759, 40.772528917888401 ], [ -73.867310638495226, 40.772488050084917 ], [ -73.867311876209911, 40.772447072772806 ], [ -73.867318467255529, 40.772406392091035 ], [ -73.867330346296612, 40.772366411237861 ], [ -73.867347395587288, 40.772327526474548 ], [ -73.867369446138724, 40.772290123198133 ], [ -73.869166460529598, 40.769608130648891 ], [ -73.869191357167111, 40.769574886999386 ], [ -73.869220204786231, 40.769543543678289 ], [ -73.869252754330731, 40.769514371282654 ], [ -73.869288724785562, 40.769487621666897 ], [ -73.869327805603035, 40.769463525768572 ], [ -73.86936965938385, 40.769442291614581 ], [ -73.869413924790052, 40.769424102525406 ], [ -73.873439907575403, 40.767949110658208 ], [ -73.873489752407153, 40.76793312824033 ], [ -73.873541445877336, 40.767921006572053 ], [ -73.875411330291456, 40.767559196149499 ], [ -73.876373340134009, 40.767733393953151 ] ] ] } }
]
}
